YAOGAN-43 01D           
1 60461U 24148D   26068.43560480  .00010676  00000+0  37766-3 0  9999
2 60461  35.0010  61.7102 0002556 326.2473  33.8080 15.28369377 87008
STARLINK-35738          
1 67116U 25299Q   26068.33334491 -.02079847  00000+0 -56765-1 0  9998
2 67116  43.0009 170.8346 0001309 273.8044  91.1615 15.40394704  5925
